CSS (TIANHE)            
1 48274U 21035A   24171.91488360  .00031894  00000+0  35478-3 0  9994
2 48274  41.4687  66.4880 0004566 250.8731 109.1614 15.62176984179521
